STARLINK-1926
1 26757C 20074U   21325.10365279 -.00012919  00000-0 -86553-3 0  3255
2 26757  53.0525 172.7767 0001818  78.1525 140.6963 15.06414898    10
